SL-8 R/B                
1 20775U 90078B   26064.54364729  .00018379  00000+0  54091-3 0  9992
2 20775  82.8997 255.0401 0363148  27.9255 334.0934 14.88899069808686
SL-8 R/B                
1 21088U 91006B   26064.72409359  .00000088  00000+0  72381-4 0  9992
2 21088  82.9465 172.9938 0023299  49.0675 121.7763 13.77493733763527
OKEAN-3                 
1 21397U 91039A   26064.75573369  .00004544  00000+0  31969-3 0  9994
2 21397  82.5195 340.6539 0014214 352.8041   7.2979 15.04770467864440
COSMOS 2151             
1 21422U 91042A   26064.81450842  .00002777  00000+0  22031-3 0  9990
2 21422  82.4928  87.4152 0014049  75.2644 285.0136 15.00088167862613
SL-14 R/B               
1 21423U 91042B   26064.84123932  .00000687  00000+0  83954-4 0  9991
2 21423  82.4915 223.7912 0015646 252.3489 107.6017 14.81824924852509
ERS-1                   
1 21574U 91050A   26064.66568799  .00000425  00000+0  15043-3 0  9994
2 21574  98.7885  82.7991 0031406 212.5632 147.3618 14.39445679815159
ARIANE 40 R/B           
1 21610U 91050F   26064.72621310  .00000429  00000+0  14103-3 0  9991
2 21610  98.2020 117.1112 0004353  89.9282 270.2407 14.42890414818422
INTERCOSMOS 25          
1 21819U 91086A   26064.69509710  .00001644  00000+0  31546-3 0  9996
2 21819  82.6058 312.4229 1487007 125.5367 249.3693 12.11987048496209
SL-8 R/B                
1 21876U 92008B   26064.65023582  .00000003  00000+0 -12834-4 0  9997
2 21876  82.9226 270.7840 0035347 144.3311 279.6722 13.75969751708869
SL-8 R/B                
1 21938U 92020B   26064.70290906  .00000108  00000+0  96012-4 0  9997
2 21938  82.9341 156.7210 0027810 310.4040 166.8656 13.75548996700589
USA 81                  
1 21949U 92023A   26064.67691384  .00000242  00000+0  82214-4 0  9991
2 21949  85.0092 133.7560 0002571  80.6897 279.4586 14.32366484 94217
COSMOS 2219             
1 22219U 92076A   26064.34745490  .00000282  00000+0  17249-3 0  9991
2 22219  71.0624  27.1440 0019249 212.8488 147.1440 14.14090569717762
SL-16 R/B               
1 22220U 92076B   26064.83348094 -.00000045  00000+0  14747-5 0  9996
2 22220  71.0002 196.4956 0010525 103.4998  59.0645 14.16860314721280
COSMOS 2221             
1 22236U 92080A   26064.69155274  .00002665  00000+0  23393-3 0  9992
2 22236  82.5012 282.9117 0013677 201.0010 159.0652 14.96183542780199
SL-16 R/B               
1 22285U 92093B   26064.85264182 -.00000177  00000+0 -66065-4 0  9999
2 22285  71.0239  12.3199 0006348 297.8085  62.2394 14.15449119712610
COSMOS 2228             
1 22286U 92094A   26064.84422989  .00003490  00000+0  29906-3 0  9992
2 22286  82.5149 240.9931 0017022 318.3888  41.6038 14.97168516775481
SL-16 R/B               
1 22566U 93016B   26064.75133808  .00000280  00000+0  16808-3 0  9998
2 22566  71.0063 223.4526 0011516 319.7189  40.3079 14.15306753701619
