[{"OBJECT_NAME":"SL-8 R/B","OBJECT_ID":"1990-078B","EPOCH":"2026-03-05T13:02:51.125856","MEAN_MOTION":14.88899069,"ECCENTRICITY":0.0363148,"INCLINATION":82.8997,"RA_OF_ASC_NODE":255.0401,"ARG_OF_PERICENTER":27.9255,"MEAN_ANOMALY":334.0934,"EPHEMERIS_TYPE":0,"CLASSIFICATION_TYPE":"U","NORAD_CAT_ID":20775,"ELEMENT_SET_NO":999,"REV_AT_EPOCH":80868,"BSTAR":0.00054091,"MEAN_MOTION_DOT":0.00018379,"MEAN_MOTION_DDOT":0},{"OBJECT_NAME":"SL-8 R/B","OBJECT_ID":"1991-006B","EPOCH":"2026-03-05T17:22:41.686176","MEAN_MOTION":13.77493733,"ECCENTRICITY":0.0023299,"INCLINATION":82.9465,"RA_OF_ASC_NODE":172.9938,"ARG_OF_PERICENTER":49.0675,"MEAN_ANOMALY":121.7763,"EPHEMERIS_TYPE":0,"CLASSIFICATION_TYPE":"U","NORAD_CAT_ID":21088,"ELEMENT_SET_NO":999,"REV_AT_EPOCH":76352,"BSTAR":7.2381e-5,"MEAN_MOTION_DOT":8.8e-7,"MEAN_MOTION_DDOT":0},{"OBJECT_NAME":"OKEAN-3","OBJECT_ID":"1991-039A","EPOCH":"2026-03-05T18:08:15.390816","MEAN_MOTION":15.04770467,"ECCENTRICITY":0.0014214,"INCLINATION":82.5195,"RA_OF_ASC_NODE":340.6539,"ARG_OF_PERICENTER":352.8041,"MEAN_ANOMALY":7.2979,"EPHEMERIS_TYPE":0,"CLASSIFICATION_TYPE":"U","NORAD_CAT_ID":21397,"ELEMENT_SET_NO":999,"REV_AT_EPOCH":86444,"BSTAR":0.00031969,"MEAN_MOTION_DOT":4.544e-5,"MEAN_MOTION_DDOT":0},{"OBJECT_NAME":"COSMOS 2151","OBJECT_ID":"1991-042A","EPOCH":"2026-03-05T19:32:53.527488","MEAN_MOTION":15.00088167,"ECCENTRICITY":0.0014049,"INCLINATION":82.4928,"RA_OF_ASC_NODE":87.4152,"ARG_OF_PERICENTER":75.2644,"MEAN_ANOMALY":285.0136,"EPHEMERIS_TYPE":0,"CLASSIFICATION_TYPE":"U","NORAD_CAT_ID":21422,"ELEMENT_SET_NO":999,"REV_AT_EPOCH":86261,"BSTAR":0.00022031,"MEAN_MOTION_DOT":2.777e-5,"MEAN_MOTION_DDOT":0},{"OBJECT_NAME":"SL-14 R/B","OBJECT_ID":"1991-042B","EPOCH":"2026-03-05T20:11:23.077248","MEAN_MOTION":14.81824924,"ECCENTRICITY":0.0015646,"INCLINATION":82.4915,"RA_OF_ASC_NODE":223.7912,"ARG_OF_PERICENTER":252.3489,"MEAN_ANOMALY":107.6017,"EPHEMERIS_TYPE":0,"CLASSIFICATION_TYPE":"U","NORAD_CAT_ID":21423,"ELEMENT_SET_NO":999,"REV_AT_EPOCH":85250,"BSTAR":8.3954e-5,"MEAN_MOTION_DOT":6.87e-6,"MEAN_MOTION_DDOT":0},{"OBJECT_NAME":"ERS-1","OBJECT_ID":"1991-050A","EPOCH":"2026-03-05T15:58:35.442336","MEAN_MOTION":14.39445679,"ECCENTRICITY":0.0031406,"INCLINATION":98.7885,"RA_OF_ASC_NODE":82.7991,"ARG_OF_PERICENTER":212.5632,"MEAN_ANOMALY":147.3618,"EPHEMERIS_TYPE":0,"CLASSIFICATION_TYPE":"U","NORAD_CAT_ID":21574,"ELEMENT_SET_NO":999,"REV_AT_EPOCH":81515,"BSTAR":0.00015043,"MEAN_MOTION_DOT":4.25e-6,"MEAN_MOTION_DDOT":0},{"OBJECT_NAME":"ARIANE 40 R/B","OBJECT_ID":"1991-050F","EPOCH":"2026-03-05T17:25:44.811840","MEAN_MOTION":14.42890414,"ECCENTRICITY":0.0004353,"INCLINATION":98.202,"RA_OF_ASC_NODE":117.1112,"ARG_OF_PERICENTER":89.9282,"MEAN_ANOMALY":270.2407,"EPHEMERIS_TYPE":0,"CLASSIFICATION_TYPE":"U","NORAD_CAT_ID":21610,"ELEMENT_SET_NO":999,"REV_AT_EPOCH":81842,"BSTAR":0.00014103,"MEAN_MOTION_DOT":4.29e-6,"MEAN_MOTION_DDOT":0},{"OBJECT_NAME":"INTERCOSMOS 25","OBJECT_ID":"1991-086A","EPOCH":"2026-03-05T16:40:56.389440","MEAN_MOTION":12.11987048,"ECCENTRICITY":0.1487007,"INCLINATION":82.6058,"RA_OF_ASC_NODE":312.4229,"ARG_OF_PERICENTER":125.5367,"MEAN_ANOMALY":249.3693,"EPHEMERIS_TYPE":0,"CLASSIFICATION_TYPE":"U","NORAD_CAT_ID":21819,"ELEMENT_SET_NO":999,"REV_AT_EPOCH":49620,"BSTAR":0.00031546,"MEAN_MOTION_DOT":1.644e-5,"MEAN_MOTION_DDOT":0},{"OBJECT_NAME":"SL-8 R/B","OBJECT_ID":"1992-008B","EPOCH":"2026-03-05T15:36:20.374848","MEAN_MOTION":13.75969751,"ECCENTRICITY":0.0035347,"INCLINATION":82.9226,"RA_OF_ASC_NODE":270.784,"ARG_OF_PERICENTER":144.3311,"MEAN_ANOMALY":279.6722,"EPHEMERIS_TYPE":0,"CLASSIFICATION_TYPE":"U","NORAD_CAT_ID":21876,"ELEMENT_SET_NO":999,"REV_AT_EPOCH":70886,"BSTAR":-1.2834e-5,"MEAN_MOTION_DOT":3.0e-8,"MEAN_MOTION_DDOT":0},{"OBJECT_NAME":"SL-8 R/B","OBJECT_ID":"1992-020B","EPOCH":"2026-03-05T16:52:11.342784","MEAN_MOTION":13.75548996,"ECCENTRICITY":0.002781,"INCLINATION":82.9341,"RA_OF_ASC_NODE":156.721,"ARG_OF_PERICENTER":310.404,"MEAN_ANOMALY":166.8656,"EPHEMERIS_TYPE":0,"CLASSIFICATION_TYPE":"U","NORAD_CAT_ID":21938,"ELEMENT_SET_NO":999,"REV_AT_EPOCH":70058,"BSTAR":9.6012e-5,"MEAN_MOTION_DOT":1.08e-6,"MEAN_MOTION_DDOT":0},{"OBJECT_NAME":"USA 81","OBJECT_ID":"1992-023A","EPOCH":"2026-03-05T16:14:45.355776","MEAN_MOTION":14.32366484,"ECCENTRICITY":0.0002571,"INCLINATION":85.0092,"RA_OF_ASC_NODE":133.756,"ARG_OF_PERICENTER":80.6897,"MEAN_ANOMALY":279.4586,"EPHEMERIS_TYPE":0,"CLASSIFICATION_TYPE":"U","NORAD_CAT_ID":21949,"ELEMENT_SET_NO":999,"REV_AT_EPOCH":9421,"BSTAR":8.2214e-5,"MEAN_MOTION_DOT":2.42e-6,"MEAN_MOTION_DDOT":0},{"OBJECT_NAME":"COSMOS 2219","OBJECT_ID":"1992-076A","EPOCH":"2026-03-05T08:20:20.103360","MEAN_MOTION":14.14090569,"ECCENTRICITY":0.0019249,"INCLINATION":71.0624,"RA_OF_ASC_NODE":27.144,"ARG_OF_PERICENTER":212.8488,"MEAN_ANOMALY":147.144,"EPHEMERIS_TYPE":0,"CLASSIFICATION_TYPE":"U","NORAD_CAT_ID":22219,"ELEMENT_SET_NO":999,"REV_AT_EPOCH":71776,"BSTAR":0.00017249,"MEAN_MOTION_DOT":2.82e-6,"MEAN_MOTION_DDOT":0},{"OBJECT_NAME":"SL-16 R/B","OBJECT_ID":"1992-076B","EPOCH":"2026-03-05T20:00:12.753216","MEAN_MOTION":14.16860314,"ECCENTRICITY":0.0010525,"INCLINATION":71.0002,"RA_OF_ASC_NODE":196.4956,"ARG_OF_PERICENTER":103.4998,"MEAN_ANOMALY":59.0645,"EPHEMERIS_TYPE":0,"CLASSIFICATION_TYPE":"U","NORAD_CAT_ID":22220,"ELEMENT_SET_NO":999,"REV_AT_EPOCH":72128,"BSTAR":1.4747e-6,"MEAN_MOTION_DOT":-4.5e-7,"MEAN_MOTION_DDOT":0},{"OBJECT_NAME":"COSMOS 2221","OBJECT_ID":"1992-080A","EPOCH":"2026-03-05T16:35:50.156736","MEAN_MOTION":14.96183542,"ECCENTRICITY":0.0013677,"INCLINATION":82.5012,"RA_OF_ASC_NODE":282.9117,"ARG_OF_PERICENTER":201.001,"MEAN_ANOMALY":159.0652,"EPHEMERIS_TYPE":0,"CLASSIFICATION_TYPE":"U","NORAD_CAT_ID":22236,"ELEMENT_SET_NO":999,"REV_AT_EPOCH":78019,"BSTAR":0.00023393,"MEAN_MOTION_DOT":2.665e-5,"MEAN_MOTION_DDOT":0},{"OBJECT_NAME":"SL-16 R/B","OBJECT_ID":"1992-093B","EPOCH":"2026-03-05T20:27:48.253248","MEAN_MOTION":14.15449119,"ECCENTRICITY":0.0006348,"INCLINATION":71.0239,"RA_OF_ASC_NODE":12.3199,"ARG_OF_PERICENTER":297.8085,"MEAN_ANOMALY":62.2394,"EPHEMERIS_TYPE":0,"CLASSIFICATION_TYPE":"U","NORAD_CAT_ID":22285,"ELEMENT_SET_NO":999,"REV_AT_EPOCH":71261,"BSTAR":-6.6065e-5,"MEAN_MOTION_DOT":-1.77e-6,"MEAN_MOTION_DDOT":0},{"OBJECT_NAME":"COSMOS 2228","OBJECT_ID":"1992-094A","EPOCH":"2026-03-05T20:15:41.462496","MEAN_MOTION":14.97168516,"ECCENTRICITY":0.0017022,"INCLINATION":82.5149,"RA_OF_ASC_NODE":240.9931,"ARG_OF_PERICENTER":318.3888,"MEAN_ANOMALY":41.6038,"EPHEMERIS_TYPE":0,"CLASSIFICATION_TYPE":"U","NORAD_CAT_ID":22286,"ELEMENT_SET_NO":999,"REV_AT_EPOCH":77548,"BSTAR":0.00029906,"MEAN_MOTION_DOT":3.49e-5,"MEAN_MOTION_DDOT":0},{"OBJECT_NAME":"SL-16 R/B","OBJECT_ID":"1993-016B","EPOCH":"2026-03-05T18:01:55.610112","MEAN_MOTION":14.15306753,"ECCENTRICITY":0.0011516,"INCLINATION":71.0063,"RA_OF_ASC_NODE":223.4526,"ARG_OF_PERICENTER":319.7189,"MEAN_ANOMALY":40.3079,"EPHEMERIS_TYPE":0,"CLASSIFICATION_TYPE":"U","NORAD_CAT_ID":22566,"ELEMENT_SET_NO":999,"REV_AT_EPOCH":70161,"BSTAR":0.00016808,"MEAN_MOTION_DOT":2.8e-6,"MEAN_MOTION_DDOT":0}]
